CCSDS_OMM_VERS = 2.0
CREATION_DATE  = 
ORIGINATOR     = 

OBJECT_NAME    = UNKNOWN
OBJECT_ID      = 
CENTER_NAME    = EARTH
REF_FRAME      = TEME
TIME_SYSTEM    = UTC
MEAN_ELEMENT_THEORY = SGP/SGP4

EPOCH          = 2025-12-06T15:49:16.504320
MEAN_MOTION    = 13.78812500
ECCENTRICITY   = .011657
INCLINATION    = 66.7995
RA_OF_ASC_NODE = 66.5507
ARG_OF_PERICENTER = 327.5402
MEAN_ANOMALY   = 31.8536

EPHEMERIS_TYPE = 0
CLASSIFICATION_TYPE = U
NORAD_CAT_ID   = 81359
ELEMENT_SET_NO = 999
REV_AT_EPOCH   = 60464
BSTAR          = .11001E-2
MEAN_MOTION_DOT = .1104E-4
MEAN_MOTION_DDOT = 0

CCSDS_OMM_VERS = 2.0
CREATION_DATE  = 
ORIGINATOR     = 

OBJECT_NAME    = UNKNOWN
OBJECT_ID      = 
CENTER_NAME    = EARTH
REF_FRAME      = TEME
TIME_SYSTEM    = UTC
MEAN_ELEMENT_THEORY = SGP/SGP4

EPOCH          = 2025-12-04T14:38:20.753088
MEAN_MOTION    = 13.45126086
ECCENTRICITY   = .0709617
INCLINATION    = 65.8840
RA_OF_ASC_NODE = 91.2408
ARG_OF_PERICENTER = 85.6311
MEAN_ANOMALY   = 282.5415

EPHEMERIS_TYPE = 0
CLASSIFICATION_TYPE = U
NORAD_CAT_ID   = 81366
ELEMENT_SET_NO = 999
REV_AT_EPOCH   = 6486
BSTAR          = .63297E-3
MEAN_MOTION_DOT = .1701E-4
MEAN_MOTION_DDOT = 0

CCSDS_OMM_VERS = 2.0
CREATION_DATE  = 
ORIGINATOR     = 

OBJECT_NAME    = UNKNOWN
OBJECT_ID      = 
CENTER_NAME    = EARTH
REF_FRAME      = TEME
TIME_SYSTEM    = UTC
MEAN_ELEMENT_THEORY = SGP/SGP4

EPOCH          = 2025-12-05T11:49:47.388576
MEAN_MOTION    = 14.70202489
ECCENTRICITY   = .0070646
INCLINATION    = 98.8157
RA_OF_ASC_NODE = 75.3349
ARG_OF_PERICENTER = 27.8469
MEAN_ANOMALY   = 332.6488

EPHEMERIS_TYPE = 0
CLASSIFICATION_TYPE = U
NORAD_CAT_ID   = 81371
ELEMENT_SET_NO = 999
REV_AT_EPOCH   = 64077
BSTAR          = .11223E-2
MEAN_MOTION_DOT = .6971E-4
MEAN_MOTION_DDOT = 0

CCSDS_OMM_VERS = 2.0
CREATION_DATE  = 
ORIGINATOR     = 

OBJECT_NAME    = UNKNOWN
OBJECT_ID      = 
CENTER_NAME    = EARTH
REF_FRAME      = TEME
TIME_SYSTEM    = UTC
MEAN_ELEMENT_THEORY = SGP/SGP4

EPOCH          = 2025-12-07T11:29:44.655648
MEAN_MOTION    = 14.36178793
ECCENTRICITY   = .0083623
INCLINATION    = 71.0482
RA_OF_ASC_NODE = 7.9549
ARG_OF_PERICENTER = 93.8722
MEAN_ANOMALY   = 267.1977

EPHEMERIS_TYPE = 0
CLASSIFICATION_TYPE = U
NORAD_CAT_ID   = 81386
ELEMENT_SET_NO = 999
REV_AT_EPOCH   = 62348
BSTAR          = .2575E-2
MEAN_MOTION_DOT = .7778E-4
MEAN_MOTION_DDOT = 0

CCSDS_OMM_VERS = 2.0
CREATION_DATE  = 
ORIGINATOR     = 

OBJECT_NAME    = UNKNOWN
OBJECT_ID      = 
CENTER_NAME    = EARTH
REF_FRAME      = TEME
TIME_SYSTEM    = UTC
MEAN_ELEMENT_THEORY = SGP/SGP4

EPOCH          = 2025-12-06T10:08:01.034880
MEAN_MOTION    = 12.35638009
ECCENTRICITY   = .0165215
INCLINATION    = 103.1057
RA_OF_ASC_NODE = 228.7215
ARG_OF_PERICENTER = 156.2432
MEAN_ANOMALY   = 204.6361

EPHEMERIS_TYPE = 0
CLASSIFICATION_TYPE = U
NORAD_CAT_ID   = 81390
ELEMENT_SET_NO = 999
REV_AT_EPOCH   = 49931
BSTAR          = -.21702E-2
MEAN_MOTION_DOT = -.337E-5
MEAN_MOTION_DDOT = 0

CCSDS_OMM_VERS = 2.0
CREATION_DATE  = 
ORIGINATOR     = 

OBJECT_NAME    = UNKNOWN
OBJECT_ID      = 
CENTER_NAME    = EARTH
REF_FRAME      = TEME
TIME_SYSTEM    = UTC
MEAN_ELEMENT_THEORY = SGP/SGP4

EPOCH          = 2025-12-06T05:50:03.789888
MEAN_MOTION    = 13.81614396
ECCENTRICITY   = .0040424
INCLINATION    = 100.3967
RA_OF_ASC_NODE = 327.8101
ARG_OF_PERICENTER = 44.7294
MEAN_ANOMALY   = 331.9556

EPHEMERIS_TYPE = 0
CLASSIFICATION_TYPE = U
NORAD_CAT_ID   = 81392
ELEMENT_SET_NO = 999
REV_AT_EPOCH   = 60128
BSTAR          = .52339E-2
MEAN_MOTION_DOT = .5573E-4
MEAN_MOTION_DDOT = 0

CCSDS_OMM_VERS = 2.0
CREATION_DATE  = 
ORIGINATOR     = 

OBJECT_NAME    = UNKNOWN
OBJECT_ID      = 
CENTER_NAME    = EARTH
REF_FRAME      = TEME
TIME_SYSTEM    = UTC
MEAN_ELEMENT_THEORY = SGP/SGP4

EPOCH          = 2025-11-30T21:10:58.911456
MEAN_MOTION    = 13.88804744
ECCENTRICITY   = .0160706
INCLINATION    = 99.4716
RA_OF_ASC_NODE = 22.8652
ARG_OF_PERICENTER = 255.2060
MEAN_ANOMALY   = 103.1244

EPHEMERIS_TYPE = 0
CLASSIFICATION_TYPE = U
NORAD_CAT_ID   = 81405
ELEMENT_SET_NO = 999
REV_AT_EPOCH   = 56015
BSTAR          = .13072E-2
MEAN_MOTION_DOT = .1703E-4
MEAN_MOTION_DDOT = 0

CCSDS_OMM_VERS = 2.0
CREATION_DATE  = 
ORIGINATOR     = 

OBJECT_NAME    = UNKNOWN
OBJECT_ID      = 
CENTER_NAME    = EARTH
REF_FRAME      = TEME
TIME_SYSTEM    = UTC
MEAN_ELEMENT_THEORY = SGP/SGP4

EPOCH          = 2025-11-29T23:25:05.808288
MEAN_MOTION    = 13.12098095
ECCENTRICITY   = .0866885
INCLINATION    = 65.8150
RA_OF_ASC_NODE = 183.4971
ARG_OF_PERICENTER = 325.4234
MEAN_ANOMALY   = 29.3212

EPHEMERIS_TYPE = 0
CLASSIFICATION_TYPE = U
NORAD_CAT_ID   = 81406
ELEMENT_SET_NO = 999
REV_AT_EPOCH   = 53200
BSTAR          = .77531E-3
MEAN_MOTION_DOT = .1902E-4
MEAN_MOTION_DDOT = 0

CCSDS_OMM_VERS = 2.0
CREATION_DATE  = 
ORIGINATOR     = 

OBJECT_NAME    = UNKNOWN
OBJECT_ID      = 
CENTER_NAME    = EARTH
REF_FRAME      = TEME
TIME_SYSTEM    = UTC
MEAN_ELEMENT_THEORY = SGP/SGP4

EPOCH          = 2025-12-06T22:56:12.667488
MEAN_MOTION    = 14.06931637
ECCENTRICITY   = .0085355
INCLINATION    = 98.7499
RA_OF_ASC_NODE = 223.2731
ARG_OF_PERICENTER = 54.5440
MEAN_ANOMALY   = 306.3658

EPHEMERIS_TYPE = 0
CLASSIFICATION_TYPE = U
NORAD_CAT_ID   = 81427
ELEMENT_SET_NO = 999
REV_AT_EPOCH   = 55095
BSTAR          = .95061E-3
MEAN_MOTION_DOT = .1597E-4
MEAN_MOTION_DDOT = 0

CCSDS_OMM_VERS = 2.0
CREATION_DATE  = 
ORIGINATOR     = 

OBJECT_NAME    = UNKNOWN
OBJECT_ID      = 
CENTER_NAME    = EARTH
REF_FRAME      = TEME
TIME_SYSTEM    = UTC
MEAN_ELEMENT_THEORY = SGP/SGP4

EPOCH          = 2025-12-02T22:13:54.762528
MEAN_MOTION    = 13.54591197
ECCENTRICITY   = .0044746
INCLINATION    = 100.3099
RA_OF_ASC_NODE = 208.1917
ARG_OF_PERICENTER = 92.3523
MEAN_ANOMALY   = 268.2736

EPHEMERIS_TYPE = 0
CLASSIFICATION_TYPE = U
NORAD_CAT_ID   = 81438
ELEMENT_SET_NO = 999
REV_AT_EPOCH   = 59061
BSTAR          = .54092E-2
MEAN_MOTION_DOT = .3678E-4
MEAN_MOTION_DDOT = 0

CCSDS_OMM_VERS = 2.0
CREATION_DATE  = 
ORIGINATOR     = 

OBJECT_NAME    = UNKNOWN
OBJECT_ID      = 
CENTER_NAME    = EARTH
REF_FRAME      = TEME
TIME_SYSTEM    = UTC
MEAN_ELEMENT_THEORY = SGP/SGP4

EPOCH          = 2025-12-07T04:21:35.474112
MEAN_MOTION    = 12.62607051
ECCENTRICITY   = .0603445
INCLINATION    = 67.1579
RA_OF_ASC_NODE = 152.5426
ARG_OF_PERICENTER = 206.5192
MEAN_ANOMALY   = 150.3748

EPHEMERIS_TYPE = 0
CLASSIFICATION_TYPE = U
NORAD_CAT_ID   = 81439
ELEMENT_SET_NO = 999
REV_AT_EPOCH   = 26119
BSTAR          = .11698E-2
MEAN_MOTION_DOT = .373E-5
MEAN_MOTION_DDOT = 0

CCSDS_OMM_VERS = 2.0
CREATION_DATE  = 
ORIGINATOR     = 

OBJECT_NAME    = UNKNOWN
OBJECT_ID      = 
CENTER_NAME    = EARTH
REF_FRAME      = TEME
TIME_SYSTEM    = UTC
MEAN_ELEMENT_THEORY = SGP/SGP4

EPOCH          = 2025-12-07T01:29:49.130016
MEAN_MOTION    = 14.98920893
ECCENTRICITY   = .001811
INCLINATION    = 66.7970
RA_OF_ASC_NODE = 8.3392
ARG_OF_PERICENTER = 132.3533
MEAN_ANOMALY   = 227.9138

EPHEMERIS_TYPE = 0
CLASSIFICATION_TYPE = U
NORAD_CAT_ID   = 81449
ELEMENT_SET_NO = 999
REV_AT_EPOCH   = 63270
BSTAR          = .74301E-2
MEAN_MOTION_DOT = .91468E-3
MEAN_MOTION_DDOT = 0

CCSDS_OMM_VERS = 2.0
CREATION_DATE  = 
ORIGINATOR     = 

OBJECT_NAME    = UNKNOWN
OBJECT_ID      = 
CENTER_NAME    = EARTH
REF_FRAME      = TEME
TIME_SYSTEM    = UTC
MEAN_ELEMENT_THEORY = SGP/SGP4

EPOCH          = 2025-12-06T17:34:12.883584
MEAN_MOTION    = 14.28109755
ECCENTRICITY   = .0148022
INCLINATION    = 98.9508
RA_OF_ASC_NODE = 252.4775
ARG_OF_PERICENTER = 15.9537
MEAN_ANOMALY   = 39.1921

EPHEMERIS_TYPE = 0
CLASSIFICATION_TYPE = U
NORAD_CAT_ID   = 81478
ELEMENT_SET_NO = 999
REV_AT_EPOCH   = 62208
BSTAR          = .32382E-2
MEAN_MOTION_DOT = .9014E-4
MEAN_MOTION_DDOT = 0

CCSDS_OMM_VERS = 2.0
CREATION_DATE  = 
ORIGINATOR     = 

OBJECT_NAME    = UNKNOWN
OBJECT_ID      = 
CENTER_NAME    = EARTH
REF_FRAME      = TEME
TIME_SYSTEM    = UTC
MEAN_ELEMENT_THEORY = SGP/SGP4

EPOCH          = 2025-12-04T10:35:19.341312
MEAN_MOTION    = 13.56516252
ECCENTRICITY   = .0045005
INCLINATION    = 100.0015
RA_OF_ASC_NODE = 210.9758
ARG_OF_PERICENTER = 20.7716
MEAN_ANOMALY   = 158.3554

EPHEMERIS_TYPE = 0
CLASSIFICATION_TYPE = U
NORAD_CAT_ID   = 81488
ELEMENT_SET_NO = 999
REV_AT_EPOCH   = 59550
BSTAR          = .49835E-3
MEAN_MOTION_DOT = .307E-5
MEAN_MOTION_DDOT = 0

CCSDS_OMM_VERS = 2.0
CREATION_DATE  = 
ORIGINATOR     = 

OBJECT_NAME    = UNKNOWN
OBJECT_ID      = 
CENTER_NAME    = EARTH
REF_FRAME      = TEME
TIME_SYSTEM    = UTC
MEAN_ELEMENT_THEORY = SGP/SGP4

EPOCH          = 2025-12-01T22:22:55.179840
MEAN_MOTION    = 13.84030990
ECCENTRICITY   = .0029522
INCLINATION    = 100.3015
RA_OF_ASC_NODE = 229.5626
ARG_OF_PERICENTER = 40.7664
MEAN_ANOMALY   = 20.3982

EPHEMERIS_TYPE = 0
CLASSIFICATION_TYPE = U
NORAD_CAT_ID   = 81497
ELEMENT_SET_NO = 999
REV_AT_EPOCH   = 21480
BSTAR          = .4261E-2
MEAN_MOTION_DOT = .4706E-4
MEAN_MOTION_DDOT = 0

CCSDS_OMM_VERS = 2.0
CREATION_DATE  = 
ORIGINATOR     = 

OBJECT_NAME    = UNKNOWN
OBJECT_ID      = 
CENTER_NAME    = EARTH
REF_FRAME      = TEME
TIME_SYSTEM    = UTC
MEAN_ELEMENT_THEORY = SGP/SGP4

EPOCH          = 2025-12-07T10:49:08.703552
MEAN_MOTION    = 14.47082850
ECCENTRICITY   = .0001869
INCLINATION    = 74.0492
RA_OF_ASC_NODE = 230.9438
ARG_OF_PERICENTER = 287.9298
MEAN_ANOMALY   = 72.1657

EPHEMERIS_TYPE = 0
CLASSIFICATION_TYPE = U
NORAD_CAT_ID   = 81499
ELEMENT_SET_NO = 999
REV_AT_EPOCH   = 48165
BSTAR          = .12489E-2
MEAN_MOTION_DOT = .4526E-4
MEAN_MOTION_DDOT = 0

